{
  "type": "FeatureCollection",
  "features": [
    {
      "type": "Feature",
      "properties": {
        "norad_id": 39617,
        "name": "ASTRA 5B (EGNOS/PRN 123)",
        "group": "gnss",
        "lat": -0.06476497669410068,
        "lon": -69.84686467092027,
        "alt_km": 35766.51504209953,
        "timestamp": "2025-12-26T11:25:45.441030+00:00",
        "meta_object_name": "ASTRA 5B (EGNOS/PRN 123)",
        "meta_object_id": "2014-011B",
        "meta_epoch": "2025-12-26T02:52:23.928960",
        "meta_mean_motion": 1.00271511,
        "meta_eccentricity": 0.0004693,
        "meta_inclination": 0.0456,
        "meta_ra_of_asc_node": 16.7994,
        "meta_arg_of_pericenter": 264.1751,
        "meta_mean_anomaly": 240.4863,
        "meta_ephemeris_type": 0,
        "meta_classification_type": "U",
        "meta_norad_cat_id": 39617,
        "meta_element_set_no": 999,
        "meta_rev_at_epoch": 4293,
        "meta_bstar": 0,
        "meta_mean_motion_dot": 1.59e-06,
        "meta_mean_motion_ddot": 0,
        "tle_line1": "1 39617U 14011B   25360.11972140  .00000159  00000+0  00000+0 0  9997",
        "tle_line2": "2 39617   0.0456  16.7994 0004693 264.1751 240.4863  1.00271511 42930"
      },
      "geometry": {
        "type": "Point",
        "coordinates": [
          -69.84686467092027,
          -0.06476497669410068
        ]
      }
    },
    {
      "type": "Feature",
      "properties": {
        "norad_id": 39620,
        "name": "COSMOS 2492 (754)",
        "group": "gnss",
        "lat": -40.81226684349642,
        "lon": 163.0779928077592,
        "alt_km": 19133.586270594224,
        "timestamp": "2025-12-26T11:25:45.441040+00:00",
        "meta_object_name": "COSMOS 2492 (754)",
        "meta_object_id": "2014-012A",
        "meta_epoch": "2025-12-25T17:05:27.733056",
        "meta_mean_motion": 2.13103333,
        "meta_eccentricity": 0.0014301,
        "meta_inclination": 65.4007,
        "meta_ra_of_asc_node": 319.831,
        "meta_arg_of_pericenter": 314.035,
        "meta_mean_anomaly": 45.8506,
        "meta_ephemeris_type": 0,
        "meta_classification_type": "U",
        "meta_norad_cat_id": 39620,
        "meta_element_set_no": 999,
        "meta_rev_at_epoch": 9154,
        "meta_bstar": 0,
        "meta_mean_motion_dot": -3.2e-07,
        "meta_mean_motion_ddot": 0,
        "tle_line1": "1 39620U 14012A   25359.71212654 -.00000032  00000+0  00000+0 0  9994",
        "tle_line2": "2 39620  65.4007 319.8310 0014301 314.0350  45.8506  2.13103333 91540"
      },
      "geometry": {
        "type": "Point",
        "coordinates": [
          163.0779928077592,
          -40.81226684349642
        ]
      }
    },
    {
      "type": "Feature",
      "properties": {
        "norad_id": 39635,
        "name": "IRNSS-1B",
        "group": "gnss",
        "lat": 28.545820206385077,
        "lon": -40.1460465252836,
        "alt_km": 35791.55441728284,
        "timestamp": "2025-12-26T11:25:45.441050+00:00",
        "meta_object_name": "IRNSS-1B",
        "meta_object_id": "2014-017A",
        "meta_epoch": "2025-12-24T18:29:47.559840",
        "meta_mean_motion": 1.00272104,
        "meta_eccentricity": 0.00185731,
        "meta_inclination": 29.2343,
        "meta_ra_of_asc_node": 243.3872,
        "meta_arg_of_pericenter": 174.7097,
        "meta_mean_anomaly": 8.021,
        "meta_ephemeris_type": 0,
        "meta_classification_type": "U",
        "meta_norad_cat_id": 39635,
        "meta_element_set_no": 999,
        "meta_rev_at_epoch": 4304,
        "meta_bstar": 0,
        "meta_mean_motion_dot": 1.4e-06,
        "meta_mean_motion_ddot": 0,
        "tle_line1": "1 39635U 14017A   25358.77068935  .00000140  00000+0  00000+0 0  9990",
        "tle_line2": "2 39635  29.2343 243.3872 0018573 174.7097   8.0210  1.00272104 43048"
      },
      "geometry": {
        "type": "Point",
        "coordinates": [
          -40.1460465252836,
          28.545820206385077
        ]
      }
    },
    {
      "type": "Feature",
      "properties": {
        "norad_id": 39727,
        "name": "LUCH 5V (SDCM/PRN 141)",
        "group": "gnss",
        "lat": -4.423596298472288,
        "lon": 1.5107999957745932,
        "alt_km": 35782.0861179758,
        "timestamp": "2025-12-26T11:25:45.441061+00:00",
        "meta_object_name": "LUCH 5V (SDCM/PRN 141)",
        "meta_object_id": "2014-023A",
        "meta_epoch": "2025-12-26T03:12:44.481888",
        "meta_mean_motion": 1.00273661,
        "meta_eccentricity": 0.000378,
        "meta_inclination": 4.7014,
        "meta_ra_of_asc_node": 71.4239,
        "meta_arg_of_pericenter": 214.8852,
        "meta_mean_anomaly": 311.5075,
        "meta_ephemeris_type": 0,
        "meta_classification_type": "U",
        "meta_norad_cat_id": 39727,
        "meta_element_set_no": 999,
        "meta_rev_at_epoch": 4262,
        "meta_bstar": 0,
        "meta_mean_motion_dot": -2.49e-06,
        "meta_mean_motion_ddot": 0,
        "tle_line1": "1 39727U 14023A   25360.13384817 -.00000249  00000+0  00000+0 0  9993",
        "tle_line2": "2 39727   4.7014  71.4239 0003780 214.8852 311.5075  1.00273661 42622"
      },
      "geometry": {
        "type": "Point",
        "coordinates": [
          1.5107999957745932,
          -4.423596298472288
        ]
      }
    },
    {
      "type": "Feature",
      "properties": {
        "norad_id": 39741,
        "name": "GPS BIIF-6  (PRN 06)",
        "group": "gnss",
        "lat": 13.16586888086698,
        "lon": -12.886775055394251,
        "alt_km": 20122.830490149267,
        "timestamp": "2025-12-26T11:25:45.441072+00:00",
        "meta_object_name": "GPS BIIF-6  (PRN 06)",
        "meta_object_id": "2014-026A",
        "meta_epoch": "2025-12-25T22:56:21.832800",
        "meta_mean_motion": 2.00560326,
        "meta_eccentricity": 0.0039506,
        "meta_inclination": 56.5784,
        "meta_ra_of_asc_node": 338.2626,
        "meta_arg_of_pericenter": 319.4307,
        "meta_mean_anomaly": 40.2828,
        "meta_ephemeris_type": 0,
        "meta_classification_type": "U",
        "meta_norad_cat_id": 39741,
        "meta_element_set_no": 999,
        "meta_rev_at_epoch": 8506,
        "meta_bstar": 0,
        "meta_mean_motion_dot": -5.7e-07,
        "meta_mean_motion_ddot": 0,
        "tle_line1": "1 39741U 14026A   25359.95580825 -.00000057  00000+0  00000+0 0  9994",
        "tle_line2": "2 39741  56.5784 338.2626 0039506 319.4307  40.2828  2.00560326 85068"
      },
      "geometry": {
        "type": "Point",
        "coordinates": [
          -12.886775055394251,
          13.16586888086698
        ]
      }
    },
    {
      "type": "Feature",
      "properties": {
        "norad_id": 40001,
        "name": "COSMOS 2500 (755)",
        "group": "gnss",
        "lat": 65.01580170777004,
        "lon": 59.36119908532741,
        "alt_km": 19133.984639906084,
        "timestamp": "2025-12-26T11:25:45.441081+00:00",
        "meta_object_name": "COSMOS 2500 (755)",
        "meta_object_id": "2014-032A",
        "meta_epoch": "2025-12-24T22:41:43.592352",
        "meta_mean_motion": 2.13106238,
        "meta_eccentricity": 0.0007709,
        "meta_inclination": 65.3365,
        "meta_ra_of_asc_node": 319.6177,
        "meta_arg_of_pericenter": 219.4903,
        "meta_mean_anomaly": 140.4561,
        "meta_ephemeris_type": 0,
        "meta_classification_type": "U",
        "meta_norad_cat_id": 40001,
        "meta_element_set_no": 999,
        "meta_rev_at_epoch": 8974,
        "meta_bstar": 0,
        "meta_mean_motion_dot": -3.2e-07,
        "meta_mean_motion_ddot": 0,
        "tle_line1": "1 40001U 14032A   25358.94564343 -.00000032  00000+0  00000+0 0  9990",
        "tle_line2": "2 40001  65.3365 319.6177 0007709 219.4903 140.4561  2.13106238 89745"
      },
      "geometry": {
        "type": "Point",
        "coordinates": [
          59.36119908532741,
          65.01580170777004
        ]
      }
    },
    {
      "type": "Feature",
      "properties": {
        "norad_id": 40105,
        "name": "GPS BIIF-7  (PRN 09)",
        "group": "gnss",
        "lat": -36.61829243325431,
        "lon": 64.32833940208816,
        "alt_km": 20269.535652784085,
        "timestamp": "2025-12-26T11:25:45.441093+00:00",
        "meta_object_name": "GPS BIIF-7  (PRN 09)",
        "meta_object_id": "2014-045A",
        "meta_epoch": "2025-12-23T13:11:32.096256",
        "meta_mean_motion": 2.00573211,
        "meta_eccentricity": 0.00324114,
        "meta_inclination": 55.2352,
        "meta_ra_of_asc_node": 95.4677,
        "meta_arg_of_pericenter": 120.1575,
        "meta_mean_anomaly": 240.1743,
        "meta_ephemeris_type": 0,
        "meta_classification_type": "U",
        "meta_norad_cat_id": 40105,
        "meta_element_set_no": 999,
        "meta_rev_at_epoch": 8255,
        "meta_bstar": 0,
        "meta_mean_motion_dot": 8e-08,
        "meta_mean_motion_ddot": 0,
        "tle_line1": "1 40105U 14045A   25357.54967704  .00000008  00000+0  00000+0 0  9994",
        "tle_line2": "2 40105  55.2352  95.4677 0032411 120.1575 240.1743  2.00573211 82556"
      },
      "geometry": {
        "type": "Point",
        "coordinates": [
          64.32833940208816,
          -36.61829243325431
        ]
      }
    }
  ]
}